[{"OBJECT_NAME":"ONEWEB-0298","OBJECT_ID":"2021-075N","EPOCH":"2025-11-02T12:32:36.153888","MEAN_MOTION":13.17650573,"ECCENTRICITY":0.0001667,"INCLINATION":87.9134,"RA_OF_ASC_NODE":50.946,"ARG_OF_PERICENTER":103.2808,"MEAN_ANOMALY":256.851,"EPHEMERIS_TYPE":0,"CLASSIFICATION_TYPE":"U","NORAD_CAT_ID":49087,"ELEMENT_SET_NO":999,"REV_AT_EPOCH":20377,"BSTAR":-6.4193e-5,"MEAN_MOTION_DOT":-1.2e-7,"MEAN_MOTION_DDOT":0},{"OBJECT_NAME":"ONEWEB-0299","OBJECT_ID":"2021-075P","EPOCH":"2025-11-01T23:49:24.192768","MEAN_MOTION":13.17649833,"ECCENTRICITY":0.00015836,"INCLINATION":87.9143,"RA_OF_ASC_NODE":51.0098,"ARG_OF_PERICENTER":97.9916,"MEAN_ANOMALY":262.1395,"EPHEMERIS_TYPE":0,"CLASSIFICATION_TYPE":"U","NORAD_CAT_ID":49088,"ELEMENT_SET_NO":999,"REV_AT_EPOCH":20368,"BSTAR":0.00015097694,"MEAN_MOTION_DOT":7.1e-7,"MEAN_MOTION_DDOT":0},{"OBJECT_NAME":"ONEWEB-0300","OBJECT_ID":"2021-075Q","EPOCH":"2025-11-02T05:19:53.987232","MEAN_MOTION":13.12445648,"ECCENTRICITY":0.00016034,"INCLINATION":87.8976,"RA_OF_ASC_NODE":35.7383,"ARG_OF_PERICENTER":111.6723,"MEAN_ANOMALY":248.4576,"EPHEMERIS_TYPE":0,"CLASSIFICATION_TYPE":"U","NORAD_CAT_ID":49089,"ELEMENT_SET_NO":999,"REV_AT_EPOCH":20543,"BSTAR":4.0508825e-5,"MEAN_MOTION_DOT":2.7e-7,"MEAN_MOTION_DDOT":0},{"OBJECT_NAME":"ONEWEB-0301","OBJECT_ID":"2021-075R","EPOCH":"2025-11-02T12:15:40.551264","MEAN_MOTION":13.12444784,"ECCENTRICITY":0.0001597,"INCLINATION":87.897,"RA_OF_ASC_NODE":35.684,"ARG_OF_PERICENTER":115.3883,"MEAN_ANOMALY":244.7411,"EPHEMERIS_TYPE":0,"CLASSIFICATION_TYPE":"U","NORAD_CAT_ID":49090,"ELEMENT_SET_NO":999,"REV_AT_EPOCH":20483,"BSTAR":-0.0011679,"MEAN_MOTION_DOT":-4.07e-6,"MEAN_MOTION_DDOT":0},{"OBJECT_NAME":"ONEWEB-0302","OBJECT_ID":"2021-075S","EPOCH":"2025-11-02T11:56:58.777728","MEAN_MOTION":13.12441051,"ECCENTRICITY":0.0002001,"INCLINATION":87.8977,"RA_OF_ASC_NODE":35.6944,"ARG_OF_PERICENTER":93.5014,"MEAN_ANOMALY":266.6343,"EPHEMERIS_TYPE":0,"CLASSIFICATION_TYPE":"U","NORAD_CAT_ID":49091,"ELEMENT_SET_NO":999,"REV_AT_EPOCH":20481,"BSTAR":-0.0003059,"MEAN_MOTION_DOT":-9.7e-7,"MEAN_MOTION_DDOT":0},{"OBJECT_NAME":"ONEWEB-0304","OBJECT_ID":"2021-075T","EPOCH":"2025-11-02T08:19:41.646720","MEAN_MOTION":13.17650539,"ECCENTRICITY":0.0001735,"INCLINATION":87.9129,"RA_OF_ASC_NODE":50.9697,"ARG_OF_PERICENTER":97.0264,"MEAN_ANOMALY":263.1065,"EPHEMERIS_TYPE":0,"CLASSIFICATION_TYPE":"U","NORAD_CAT_ID":49092,"ELEMENT_SET_NO":999,"REV_AT_EPOCH":20370,"BSTAR":1.1513e-5,"MEAN_MOTION_DOT":1.7e-7,"MEAN_MOTION_DDOT":0},{"OBJECT_NAME":"ONEWEB-0305","OBJECT_ID":"2021-075U","EPOCH":"2025-11-02T08:09:58.017312","MEAN_MOTION":13.1765131,"ECCENTRICITY":0.0001545,"INCLINATION":87.9123,"RA_OF_ASC_NODE":50.9476,"ARG_OF_PERICENTER":88.7507,"MEAN_ANOMALY":271.3801,"EPHEMERIS_TYPE":0,"CLASSIFICATION_TYPE":"U","NORAD_CAT_ID":49093,"ELEMENT_SET_NO":999,"REV_AT_EPOCH":20373,"BSTAR":0.00028555,"MEAN_MOTION_DOT":1.24e-6,"MEAN_MOTION_DDOT":0},{"OBJECT_NAME":"ONEWEB-0308","OBJECT_ID":"2021-075V","EPOCH":"2025-11-02T11:47:38.522112","MEAN_MOTION":13.1244081,"ECCENTRICITY":0.0001796,"INCLINATION":87.8975,"RA_OF_ASC_NODE":35.6881,"ARG_OF_PERICENTER":102.4738,"MEAN_ANOMALY":257.6591,"EPHEMERIS_TYPE":0,"CLASSIFICATION_TYPE":"U","NORAD_CAT_ID":49094,"ELEMENT_SET_NO":999,"REV_AT_EPOCH":20482,"BSTAR":8.0731e-5,"MEAN_MOTION_DOT":4.2e-7,"MEAN_MOTION_DDOT":0},{"OBJECT_NAME":"ONEWEB-0309","OBJECT_ID":"2021-075W","EPOCH":"2025-11-02T08:14:50.109792","MEAN_MOTION":13.17649829,"ECCENTRICITY":0.0002139,"INCLINATION":87.9128,"RA_OF_ASC_NODE":50.9634,"ARG_OF_PERICENTER":93.102,"MEAN_ANOMALY":267.0356,"EPHEMERIS_TYPE":0,"CLASSIFICATION_TYPE":"U","NORAD_CAT_ID":49095,"ELEMENT_SET_NO":999,"REV_AT_EPOCH":20370,"BSTAR":0.00022017,"MEAN_MOTION_DOT":9.8e-7,"MEAN_MOTION_DDOT":0},{"OBJECT_NAME":"ONEWEB-0310","OBJECT_ID":"2021-075X","EPOCH":"2025-11-02T12:08:40.115904","MEAN_MOTION":13.12443396,"ECCENTRICITY":0.0001848,"INCLINATION":87.8962,"RA_OF_ASC_NODE":35.7253,"ARG_OF_PERICENTER":98.9673,"MEAN_ANOMALY":261.1665,"EPHEMERIS_TYPE":0,"CLASSIFICATION_TYPE":"U","NORAD_CAT_ID":49096,"ELEMENT_SET_NO":999,"REV_AT_EPOCH":20545,"BSTAR":-0.00099042,"MEAN_MOTION_DOT":-3.44e-6,"MEAN_MOTION_DDOT":0},{"OBJECT_NAME":"ONEWEB-0311","OBJECT_ID":"2021-075Y","EPOCH":"2025-11-02T04:45:50.200416","MEAN_MOTION":13.17651945,"ECCENTRICITY":0.00014916,"INCLINATION":87.9127,"RA_OF_ASC_NODE":50.989,"ARG_OF_PERICENTER":94.2464,"MEAN_ANOMALY":265.8838,"EPHEMERIS_TYPE":0,"CLASSIFICATION_TYPE":"U","NORAD_CAT_ID":49097,"ELEMENT_SET_NO":999,"REV_AT_EPOCH":20373,"BSTAR":9.1658551e-5,"MEAN_MOTION_DOT":4.8e-7,"MEAN_MOTION_DDOT":0},{"OBJECT_NAME":"ONEWEB-0312","OBJECT_ID":"2021-075Z","EPOCH":"2025-11-02T12:25:06.883392","MEAN_MOTION":13.17651076,"ECCENTRICITY":0.0001707,"INCLINATION":87.9124,"RA_OF_ASC_NODE":50.9542,"ARG_OF_PERICENTER":89.8995,"MEAN_ANOMALY":270.2332,"EPHEMERIS_TYPE":0,"CLASSIFICATION_TYPE":"U","NORAD_CAT_ID":49098,"ELEMENT_SET_NO":999,"REV_AT_EPOCH":20375,"BSTAR":0.00014934,"MEAN_MOTION_DOT":7.1e-7,"MEAN_MOTION_DDOT":0},{"OBJECT_NAME":"ONEWEB-0313","OBJECT_ID":"2021-075AA","EPOCH":"2025-11-02T12:32:12.811200","MEAN_MOTION":13.17650014,"ECCENTRICITY":0.0001652,"INCLINATION":87.9121,"RA_OF_ASC_NODE":50.9624,"ARG_OF_PERICENTER":97.6847,"MEAN_ANOMALY":262.4472,"EPHEMERIS_TYPE":0,"CLASSIFICATION_TYPE":"U","NORAD_CAT_ID":49099,"ELEMENT_SET_NO":999,"REV_AT_EPOCH":20374,"BSTAR":-7.3935e-5,"MEAN_MOTION_DOT":-1.6e-7,"MEAN_MOTION_DDOT":0},{"OBJECT_NAME":"ONEWEB-0314","OBJECT_ID":"2021-075AB","EPOCH":"2025-11-02T08:05:06.950400","MEAN_MOTION":13.17649659,"ECCENTRICITY":0.0001656,"INCLINATION":87.9129,"RA_OF_ASC_NODE":50.9459,"ARG_OF_PERICENTER":87.2947,"MEAN_ANOMALY":272.8374,"EPHEMERIS_TYPE":0,"CLASSIFICATION_TYPE":"U","NORAD_CAT_ID":49100,"ELEMENT_SET_NO":999,"REV_AT_EPOCH":20369,"BSTAR":-8.2125e-5,"MEAN_MOTION_DOT":-1.9e-7,"MEAN_MOTION_DDOT":0},{"OBJECT_NAME":"ONEWEB-0315","OBJECT_ID":"2021-075AC","EPOCH":"2025-11-02T11:31:18.239808","MEAN_MOTION":13.12441917,"ECCENTRICITY":0.0001389,"INCLINATION":87.8969,"RA_OF_ASC_NODE":35.6777,"ARG_OF_PERICENTER":98.1688,"MEAN_ANOMALY":261.9598,"EPHEMERIS_TYPE":0,"CLASSIFICATION_TYPE":"U","NORAD_CAT_ID":49101,"ELEMENT_SET_NO":999,"REV_AT_EPOCH":20543,"BSTAR":0.0010352,"MEAN_MOTION_DOT":3.85e-6,"MEAN_MOTION_DDOT":0},{"OBJECT_NAME":"ONEWEB-0316","OBJECT_ID":"2021-075AD","EPOCH":"2025-11-02T10:33:26.794080","MEAN_MOTION":13.18687783,"ECCENTRICITY":0.000176,"INCLINATION":87.9229,"RA_OF_ASC_NODE":20.5017,"ARG_OF_PERICENTER":99.5787,"MEAN_ANOMALY":260.5544,"EPHEMERIS_TYPE":0,"CLASSIFICATION_TYPE":"U","NORAD_CAT_ID":49102,"ELEMENT_SET_NO":999,"REV_AT_EPOCH":20732,"BSTAR":0.00013537,"MEAN_MOTION_DOT":6.6e-7,"MEAN_MOTION_DDOT":0},{"OBJECT_NAME":"ONEWEB-0317","OBJECT_ID":"2021-075AE","EPOCH":"2025-11-02T05:52:36.372288","MEAN_MOTION":13.12445274,"ECCENTRICITY":0.00026337,"INCLINATION":87.8973,"RA_OF_ASC_NODE":35.7406,"ARG_OF_PERICENTER":102.2137,"MEAN_ANOMALY":257.9287,"EPHEMERIS_TYPE":0,"CLASSIFICATION_TYPE":"U","NORAD_CAT_ID":49103,"ELEMENT_SET_NO":999,"REV_AT_EPOCH":20542,"BSTAR":0.0013753158,"MEAN_MOTION_DOT":5.08e-6,"MEAN_MOTION_DDOT":0},{"OBJECT_NAME":"ONEWEB-0318","OBJECT_ID":"2021-075AF","EPOCH":"2025-11-02T10:28:40.982880","MEAN_MOTION":13.18687191,"ECCENTRICITY":0.0001657,"INCLINATION":87.9228,"RA_OF_ASC_NODE":20.4893,"ARG_OF_PERICENTER":98.1591,"MEAN_ANOMALY":261.9729,"EPHEMERIS_TYPE":0,"CLASSIFICATION_TYPE":"U","NORAD_CAT_ID":49104,"ELEMENT_SET_NO":999,"REV_AT_EPOCH":20728,"BSTAR":6.2469e-5,"MEAN_MOTION_DOT":3.8e-7,"MEAN_MOTION_DDOT":0},{"OBJECT_NAME":"ONEWEB-0319","OBJECT_ID":"2021-075AG","EPOCH":"2025-11-02T08:26:58.701984","MEAN_MOTION":13.17649639,"ECCENTRICITY":0.00015,"INCLINATION":87.9123,"RA_OF_ASC_NODE":50.9814,"ARG_OF_PERICENTER":92.0942,"MEAN_ANOMALY":268.0361,"EPHEMERIS_TYPE":0,"CLASSIFICATION_TYPE":"U","NORAD_CAT_ID":49105,"ELEMENT_SET_NO":999,"REV_AT_EPOCH":20373,"BSTAR":0.00014822,"MEAN_MOTION_DOT":7.0e-7,"MEAN_MOTION_DDOT":0},{"OBJECT_NAME":"ONEWEB-0323","OBJECT_ID":"2021-075AH","EPOCH":"2025-11-02T07:28:23.126592","MEAN_MOTION":13.12443676,"ECCENTRICITY":0.0001346,"INCLINATION":87.897,"RA_OF_ASC_NODE":35.7139,"ARG_OF_PERICENTER":82.1442,"MEAN_ANOMALY":277.9839,"EPHEMERIS_TYPE":0,"CLASSIFICATION_TYPE":"U","NORAD_CAT_ID":49106,"ELEMENT_SET_NO":999,"REV_AT_EPOCH":20479,"BSTAR":0.001043,"MEAN_MOTION_DOT":3.88e-6,"MEAN_MOTION_DDOT":0},{"OBJECT_NAME":"ONEWEB-0329","OBJECT_ID":"2021-075AJ","EPOCH":"2025-11-02T08:39:06.818976","MEAN_MOTION":13.17650849,"ECCENTRICITY":0.0001805,"INCLINATION":87.9128,"RA_OF_ASC_NODE":50.9822,"ARG_OF_PERICENTER":96.5315,"MEAN_ANOMALY":263.6022,"EPHEMERIS_TYPE":0,"CLASSIFICATION_TYPE":"U","NORAD_CAT_ID":49107,"ELEMENT_SET_NO":999,"REV_AT_EPOCH":20371,"BSTAR":0.00018624,"MEAN_MOTION_DOT":8.5e-7,"MEAN_MOTION_DDOT":0},{"OBJECT_NAME":"ONEWEB-0330","OBJECT_ID":"2021-075AK","EPOCH":"2025-11-02T08:40:20.481024","MEAN_MOTION":13.17647801,"ECCENTRICITY":0.0001918,"INCLINATION":87.9125,"RA_OF_ASC_NODE":50.987,"ARG_OF_PERICENTER":93.8074,"MEAN_ANOMALY":266.3277,"EPHEMERIS_TYPE":0,"CLASSIFICATION_TYPE":"U","NORAD_CAT_ID":49108,"ELEMENT_SET_NO":999,"REV_AT_EPOCH":20375,"BSTAR":-2.8903e-5,"MEAN_MOTION_DOT":2.0e-8,"MEAN_MOTION_DDOT":0},{"OBJECT_NAME":"ONEWEB-0292","OBJECT_ID":"2021-083A","EPOCH":"2025-11-02T11:03:53.496576","MEAN_MOTION":13.13469321,"ECCENTRICITY":0.0001674,"INCLINATION":87.9022,"RA_OF_ASC_NODE":5.3258,"ARG_OF_PERICENTER":97.1521,"MEAN_ANOMALY":262.9798,"EPHEMERIS_TYPE":0,"CLASSIFICATION_TYPE":"U","NORAD_CAT_ID":49186,"ELEMENT_SET_NO":999,"REV_AT_EPOCH":20116,"BSTAR":0.00074673,"MEAN_MOTION_DOT":2.85e-6,"MEAN_MOTION_DDOT":0},{"OBJECT_NAME":"ONEWEB-0303","OBJECT_ID":"2021-083B","EPOCH":"2025-11-02T12:13:12.154080","MEAN_MOTION":13.18687267,"ECCENTRICITY":0.0001672,"INCLINATION":87.9229,"RA_OF_ASC_NODE":20.4759,"ARG_OF_PERICENTER":97.9432,"MEAN_ANOMALY":262.189,"EPHEMERIS_TYPE":0,"CLASSIFICATION_TYPE":"U","NORAD_CAT_ID":49187,"ELEMENT_SET_NO":999,"REV_AT_EPOCH":20010,"BSTAR":0.00010634,"MEAN_MOTION_DOT":5.5e-7,"MEAN_MOTION_DDOT":0}]
